{
  "type": "FeatureCollection",
  "features": [
    {
      "type": "Feature",
      "properties": {
        "norad_id": 31877,
        "name": "FENGYUN 1C DEB",
        "group": "fengyun-1c-debris",
        "lat": -77.23807598936106,
        "lon": 117.85591182815506,
        "alt_km": 518.405293154653,
        "timestamp": "2025-12-26T22:28:06.068989+00:00",
        "meta_object_name": "FENGYUN 1C DEB",
        "meta_object_id": "1999-025CKC",
        "meta_epoch": "2025-12-24T10:03:54.085536",
        "meta_mean_motion": 15.0179485,
        "meta_eccentricity": 0.010385,
        "meta_inclination": 99.005,
        "meta_ra_of_asc_node": 70.4985,
        "meta_arg_of_pericenter": 240.85,
        "meta_mean_anomaly": 118.2297,
        "meta_ephemeris_type": 0,
        "meta_classification_type": "U",
        "meta_norad_cat_id": 31877,
        "meta_element_set_no": 999,
        "meta_rev_at_epoch": 99217,
        "meta_bstar": 0.0010130212,
        "meta_mean_motion_dot": 0.00014768,
        "meta_mean_motion_ddot": 0,
        "tle_line1": "1 31877U 99025CKC 25358.41937599  .00014768  00000+0  10130-2 0  9993",
        "tle_line2": "2 31877  99.0050  70.4985 0103850 240.8500 118.2297 15.01794850992178"
      },
      "geometry": {
        "type": "Point",
        "coordinates": [
          117.85591182815506,
          -77.23807598936106
        ]
      }
    },
    {
      "type": "Feature",
      "properties": {
        "norad_id": 31878,
        "name": "FENGYUN 1C DEB",
        "group": "fengyun-1c-debris",
        "lat": 56.61840810265765,
        "lon": -87.50943436827919,
        "alt_km": 645.9956131031013,
        "timestamp": "2025-12-26T22:28:06.068999+00:00",
        "meta_object_name": "FENGYUN 1C DEB",
        "meta_object_id": "1999-025CKD",
        "meta_epoch": "2025-12-21T12:55:43.069152",
        "meta_mean_motion": 14.86026303,
        "meta_eccentricity": 0.0083415,
        "meta_inclination": 99.4418,
        "meta_ra_of_asc_node": 280.7207,
        "meta_arg_of_pericenter": 210.3879,
        "meta_mean_anomaly": 149.2482,
        "meta_ephemeris_type": 0,
        "meta_classification_type": "U",
        "meta_norad_cat_id": 31878,
        "meta_element_set_no": 999,
        "meta_rev_at_epoch": 98224,
        "meta_bstar": 0.00093453,
        "meta_mean_motion_dot": 8.633e-05,
        "meta_mean_motion_ddot": 0,
        "tle_line1": "1 31878U 99025CKD 25355.53869293  .00008633  00000+0  93453-3 0  9993",
        "tle_line2": "2 31878  99.4418 280.7207 0083415 210.3879 149.2482 14.86026303982249"
      },
      "geometry": {
        "type": "Point",
        "coordinates": [
          -87.50943436827919,
          56.61840810265765
        ]
      }
    },
    {
      "type": "Feature",
      "properties": {
        "norad_id": 31879,
        "name": "FENGYUN 1C DEB",
        "group": "fengyun-1c-debris",
        "lat": 12.176765843632063,
        "lon": 63.49194574869064,
        "alt_km": 897.6738402359388,
        "timestamp": "2025-12-26T22:28:06.069009+00:00",
        "meta_object_name": "FENGYUN 1C DEB",
        "meta_object_id": "1999-025CKE",
        "meta_epoch": "2025-12-26T11:42:37.058688",
        "meta_mean_motion": 14.42945893,
        "meta_eccentricity": 0.02094057,
        "meta_inclination": 99.707,
        "meta_ra_of_asc_node": 240.8649,
        "meta_arg_of_pericenter": 356.9745,
        "meta_mean_anomaly": 3.016,
        "meta_ephemeris_type": 0,
        "meta_classification_type": "U",
        "meta_norad_cat_id": 31879,
        "meta_element_set_no": 999,
        "meta_rev_at_epoch": 63408,
        "meta_bstar": 0.00040563249,
        "meta_mean_motion_dot": 1.701e-05,
        "meta_mean_motion_ddot": 0,
        "tle_line1": "1 31879U 99025CKE 25360.48792892  .00001701  00000+0  40563-3 0  9997",
        "tle_line2": "2 31879  99.7070 240.8649 0209405 356.9745   3.0160 14.42945893634084"
      },
      "geometry": {
        "type": "Point",
        "coordinates": [
          63.49194574869064,
          12.176765843632063
        ]
      }
    },
    {
      "type": "Feature",
      "properties": {
        "norad_id": 31880,
        "name": "FENGYUN 1C DEB",
        "group": "fengyun-1c-debris",
        "lat": -48.764127556786065,
        "lon": -26.81614964744072,
        "alt_km": 975.8222631171202,
        "timestamp": "2025-12-26T22:28:06.069019+00:00",
        "meta_object_name": "FENGYUN 1C DEB",
        "meta_object_id": "1999-025CKF",
        "meta_epoch": "2025-12-23T17:20:07.380960",
        "meta_mean_motion": 13.89415014,
        "meta_eccentricity": 0.01272675,
        "meta_inclination": 100.0295,
        "meta_ra_of_asc_node": 161.3731,
        "meta_arg_of_pericenter": 123.1023,
        "meta_mean_anomaly": 238.2424,
        "meta_ephemeris_type": 0,
        "meta_classification_type": "U",
        "meta_norad_cat_id": 31880,
        "meta_element_set_no": 999,
        "meta_rev_at_epoch": 63132,
        "meta_bstar": 0.0003727292,
        "meta_mean_motion_dot": 4.36e-06,
        "meta_mean_motion_ddot": 0,
        "tle_line1": "1 31880U 99025CKF 25357.72230765  .00000436  00000+0  37273-3 0  9996",
        "tle_line2": "2 31880 100.0295 161.3731 0127267 123.1023 238.2424 13.89415014631324"
      },
      "geometry": {
        "type": "Point",
        "coordinates": [
          -26.81614964744072,
          -48.764127556786065
        ]
      }
    },
    {
      "type": "Feature",
      "properties": {
        "norad_id": 31882,
        "name": "FENGYUN 1C DEB",
        "group": "fengyun-1c-debris",
        "lat": -69.78431803975238,
        "lon": -51.35523231040305,
        "alt_km": 862.4575096155477,
        "timestamp": "2025-12-26T22:28:06.069029+00:00",
        "meta_object_name": "FENGYUN 1C DEB",
        "meta_object_id": "1999-025CKH",
        "meta_epoch": "2025-12-18T00:40:31.724544",
        "meta_mean_motion": 14.12983565,
        "meta_eccentricity": 0.0035355,
        "meta_inclination": 98.9173,
        "meta_ra_of_asc_node": 274.5372,
        "meta_arg_of_pericenter": 209.4535,
        "meta_mean_anomaly": 150.4646,
        "meta_ephemeris_type": 0,
        "meta_classification_type": "U",
        "meta_norad_cat_id": 31882,
        "meta_element_set_no": 999,
        "meta_rev_at_epoch": 58711,
        "meta_bstar": 0.0005205777,
        "meta_mean_motion_dot": 9.32e-06,
        "meta_mean_motion_ddot": 0,
        "tle_line1": "1 31882U 99025CKH 25352.02814496  .00000932  00000+0  52058-3 0  9994",
        "tle_line2": "2 31882  98.9173 274.5372 0035355 209.4535 150.4646 14.12983565587112"
      },
      "geometry": {
        "type": "Point",
        "coordinates": [
          -51.35523231040305,
          -69.78431803975238
        ]
      }
    },
    {
      "type": "Feature",
      "properties": {
        "norad_id": 31883,
        "name": "FENGYUN 1C DEB",
        "group": "fengyun-1c-debris",
        "lat": -79.77894736321373,
        "lon": 37.143617808680276,
        "alt_km": 718.9640775156076,
        "timestamp": "2025-12-26T22:28:06.069040+00:00",
        "meta_object_name": "FENGYUN 1C DEB",
        "meta_object_id": "1999-025CKJ",
        "meta_epoch": "2025-12-25T17:26:58.749504",
        "meta_mean_motion": 14.67858141,
        "meta_eccentricity": 0.01244488,
        "meta_inclination": 99.029,
        "meta_ra_of_asc_node": 277.6806,
        "meta_arg_of_pericenter": 29.4911,
        "meta_mean_anomaly": 331.3236,
        "meta_ephemeris_type": 0,
        "meta_classification_type": "U",
        "meta_norad_cat_id": 31883,
        "meta_element_set_no": 999,
        "meta_rev_at_epoch": 98169,
        "meta_bstar": 0.0010782573,
        "meta_mean_motion_dot": 6.865e-05,
        "meta_mean_motion_ddot": 0,
        "tle_line1": "1 31883U 99025CKJ 25359.72706886  .00006865  00000+0  10783-2 0  9991",
        "tle_line2": "2 31883  99.0290 277.6806 0124448  29.4911 331.3236 14.67858141981698"
      },
      "geometry": {
        "type": "Point",
        "coordinates": [
          37.143617808680276,
          -79.77894736321373
        ]
      }
    },
    {
      "type": "Feature",
      "properties": {
        "norad_id": 31887,
        "name": "FENGYUN 1C DEB",
        "group": "fengyun-1c-debris",
        "lat": -75.74349661467045,
        "lon": -166.81319450031012,
        "alt_km": 699.1430653328725,
        "timestamp": "2025-12-26T22:28:06.069050+00:00",
        "meta_object_name": "FENGYUN 1C DEB",
        "meta_object_id": "1999-025CKN",
        "meta_epoch": "2025-12-24T21:30:44.983008",
        "meta_mean_motion": 14.57863059,
        "meta_eccentricity": 0.0023958,
        "meta_inclination": 99.5327,
        "meta_ra_of_asc_node": 52.2551,
        "meta_arg_of_pericenter": 326.7507,
        "meta_mean_anomaly": 33.2181,
        "meta_ephemeris_type": 0,
        "meta_classification_type": "U",
        "meta_norad_cat_id": 31887,
        "meta_element_set_no": 999,
        "meta_rev_at_epoch": 96785,
        "meta_bstar": 0.00075645,
        "meta_mean_motion_dot": 3.42e-05,
        "meta_mean_motion_ddot": 0,
        "tle_line1": "1 31887U 99025CKN 25358.89635397  .00003420  00000+0  75645-3 0  9993",
        "tle_line2": "2 31887  99.5327  52.2551 0023958 326.7507  33.2181 14.57863059967852"
      },
      "geometry": {
        "type": "Point",
        "coordinates": [
          -166.81319450031012,
          -75.74349661467045
        ]
      }
    }
  ]
}